GLOBALSTAR M045         
1 25676U 99019A   25365.47713133 -.00000104  00000+0 -96306-4 0  9998
2 25676  51.9970 102.9455 0000721 139.6344 301.8570 12.27070448217611
GLOBALSTAR M019         
1 25677U 99019B   25365.41919012  .00000026  00000+0  12090-2 0  9994
2 25677  51.9869 247.3605 0002008  29.5125 141.0100 12.13881429209094
GLOBALSTAR M044         
1 25678U 99019C   25365.38589078 -.00000007  00000+0  10752-2 0  9999
2 25678  51.9943 223.4812 0007161  61.4339 109.6194 11.90263639194806
GLOBALSTAR M042         
1 25679U 99019D   25365.36336359 -.00000028  00000+0  60694-3 0  9994
2 25679  51.9988 214.3166 0003183   8.8920 162.2117 12.22095604209367
GLOBALSTAR M025         
1 25770U 99031A   25365.46037015 -.00000061  00000+0  18936-3 0  9997
2 25770  51.9834  62.2720 0002712 117.9406 340.7064 11.22559572503867
GLOBALSTAR M049         
1 25771U 99031B   25365.45884808 -.00000010  00000+0  19017-2 0  9991
2 25771  51.9876 106.9516 0002418   6.8867 353.1962 11.12123862139377
GLOBALSTAR M047         
1 25772U 99031C   25365.42821795 -.00000074  00000+0 -12698-3 0  9995
2 25772  51.9845  85.1463 0016180 239.0069 120.9147 11.31931857493446
GLOBALSTAR M052         
1 25773U 99031D   25365.52202575 -.00000063  00000+0  81650-4 0  9998
2 25773  51.9826 212.7099 0003453 119.0830 251.3626 11.15063216500527
